[{"OBJECT_NAME":"HAWK-7B","OBJECT_ID":"2023-054R","EPOCH":"2026-03-09T16:32:12.682752","MEAN_MOTION":15.26206341,"ECCENTRICITY":0.00036614,"INCLINATION":97.2859,"RA_OF_ASC_NODE":316.7839,"ARG_OF_PERICENTER":61.5878,"MEAN_ANOMALY":298.573,"EPHEMERIS_TYPE":0,"CLASSIFICATION_TYPE":"U","NORAD_CAT_ID":56193,"ELEMENT_SET_NO":999,"REV_AT_EPOCH":16184,"BSTAR":0.00031010844,"MEAN_MOTION_DOT":7.955e-5,"MEAN_MOTION_DDOT":0},{"OBJECT_NAME":"STARLINK-30454","OBJECT_ID":"2023-147C","EPOCH":"2026-03-09T22:00:01.999584","MEAN_MOTION":15.26731954,"ECCENTRICITY":0.00015591,"INCLINATION":42.9998,"RA_OF_ASC_NODE":323.5081,"ARG_OF_PERICENTER":271.2375,"MEAN_ANOMALY":232.3862,"EPHEMERIS_TYPE":0,"CLASSIFICATION_TYPE":"U","NORAD_CAT_ID":57915,"ELEMENT_SET_NO":999,"REV_AT_EPOCH":578,"BSTAR":-0.00010894842,"MEAN_MOTION_DOT":-3.18e-5,"MEAN_MOTION_DDOT":0}]
